{"0":{"name":"WOJEW\u00d3DZKI SPECJALISTYCZNY SZPITAL IM. DR W\u0141. BIEGA\u0143SKIEGO","operator":"","address":"\u0141\u00d3D\u0179 91-347 UL. GEN. KAROLA KNIAZIEWICZA 1\/5","lat":51.760932,"lon":19.460718,"point_type":"hospital","opening_hours":"24\/7","phone":"422516059","prepare_instruction":""},"1":{"name":"SZPITAL WOJEW\u00d3DZKI IM. JANA PAW\u0141A II W BE\u0141CHATOWIE","operator":"","address":"BE\u0141CHAT\u00d3W 97-400  UL. CZAPLINIECKA 123","lat":51.37577335,"lon":19.350420483,"point_type":"hospital","opening_hours":"24\/7","phone":"446358200","prepare_instruction":""},"2":{"name":"SZPITAL POWIATOWY W RADOMSKU","operator":"","address":"RADOMSKO 97-500 UL. JAGIELLO\u0143SKA 36","lat":51.0568465,"lon":19.4592206289,"point_type":"hospital","opening_hours":"24\/7","phone":"446854716","prepare_instruction":""},"3":{"name":"TOMASZOWSKIE CENTRUM ZDROWIA SP\u00d3\u0141KA Z O.O","operator":"","address":"TOMASZ\u00d3W MAZOWIECKI 97-200 UL. JANA PAW\u0141A II 35","lat":51.5225067,"lon":20.005331,"point_type":"hospital","opening_hours":"24\/7","phone":"447257134","prepare_instruction":""},"4":{"name":"WOJEW\u00d3DZKI ZESP\u00d3\u0141 ZAK\u0141AD\u00d3W OPIEKI ZDROWOTNEJ CENTRUM LECZENIA CHOR\u00d3B","operator":"","address":"\u0141\u00d3D\u0179 91-520 UL.OK\u00d3LNA 181","lat":51.848275,"lon":19.480145,"point_type":"hospital","opening_hours":"24\/7","phone":"426590011","prepare_instruction":""},"5":{"name":"SZPITAL WOJEW\u00d3DZKI IM. PRYMASA KARDYNA\u0141A STEFANA WYSZY\u0143SKIEGO W","operator":"","address":"SIERADZ 98-200 UL. ARMII KRAJOWEJ 7","lat":51.5820613,"lon":18.7104555,"point_type":"hospital","opening_hours":"24\/7","phone":"438275426","prepare_instruction":""},"6":{"name":"WOJEW\u00d3DZKI SZPITAL ZESPOLONY IM. STANIS\u0141AWA RYBICKIEGO W SKIERNIEWICACH","operator":"","address":"SKIERNIEWICE 96-100 UL. DR. STANIS\u0141AWA RYBICKIEGO 1","lat":51.964806,"lon":20.153644,"point_type":"hospital","opening_hours":"24\/7","phone":"468340750","prepare_instruction":""},"7":{"name":"\"KUTNOWSKI SZPITAL SAMORZ\u0104DOWY\" SP\u00d3\u0141KA\nZ OGRANICZON\u0104 ODPOWIEDZIALNO\u015aCI\u0104","operator":"","address":"KUTNO 99-300 UL. KO\u015aCIUSZKI 52","lat":52.23900645,"lon":19.3717782587,"point_type":"hospital","opening_hours":"24\/7","phone":"243880202","prepare_instruction":""},"8":{"name":"WOJEW\u00d3DZKA STACJA RATOWNICTWA MEDYCZNEGO W \u0141ODZI","operator":"","address":"\u0141\u00d3D\u0179 91-202 UL. WARECKA 2","lat":51.7970845,"lon":19.4013861,"point_type":"transport","opening_hours":"24\/7","phone":"426361565","prepare_instruction":""},"9":{"name":"ZESP\u00d3\u0141 TRANSPORTU SANITARNEGO","operator":"","address":"91-202 \u0141\u00d3D\u0179, UL. WARECKA 2","lat":51.7970845,"lon":19.4013861,"point_type":"transport","opening_hours":"24\/7","phone":"426557671","prepare_instruction":""},"10":{"name":"WOJEW\u00d3DZKI SZPITAL SPECJALISTYCZNY IM. MARII SK\u0141ODOWSKIEJ - CURIE W ZGIERZU","operator":"","address":"ZGIERZ 95-100 UL. PARZ\u0118CZEWSKA 35","lat":51.862656,"lon":19.3914339,"point_type":"hospital","opening_hours":"24\/7","phone":"427163712","prepare_instruction":""},"11":{"name":"DRAVIS SP\u00d3\u0141KA Z OGRANICZON\u0104 ODPOWIEDZIALNO\u015aCI\u0104","operator":"","address":"NOWY TOMY\u015aL 64-300 UL. HENRYKA SIENKIEWICZA 3","lat":52.31529,"lon":16.14136,"point_type":"hospital","opening_hours":"24\/7","phone":"614427190","prepare_instruction":""},"12":{"name":"STACJA DIALIZ","operator":"","address":"ZGIERZ 95-100 UL. PARZ\u0118CZEWSKA 35","lat":51.862656,"lon":19.3914339,"point_type":"hospital","opening_hours":"24\/7","phone":"427144440","prepare_instruction":""},"13":{"name":"AMERICAN HEART OF POLAND SP\u00d3\u0141KA AKCYJNA","operator":"","address":"USTRO\u0143 43-450 UL. SANATORYJNA","lat":49.7069779,"lon":18.8330128,"point_type":"hospital","opening_hours":"24\/7","phone":"327604600","prepare_instruction":""},"14":{"name":"ZGIERSKIE CENTRUM KARDIOLOGII MED - PRO POLSKO-AMERYKA\u0143SKICH KLINIK SERCA","operator":"","address":"ZGIERZ 95-100 UL. PARZ\u0118CZEWSKA 35","lat":51.862656,"lon":19.3914339,"point_type":"hospital","opening_hours":"24\/7","phone":"422314710","prepare_instruction":""},"15":{"name":"WOJEW\u00d3DZKI SZPITAL ZESPOLONY W KIELCACH","operator":"","address":"KIELCE, 25-736, UL. GRUNWALDZKA 45","lat":50.8733192,"lon":20.6009163601,"point_type":"hospital","opening_hours":"24\/7","phone":"413671301","prepare_instruction":""},"16":{"name":"WOJEW\u00d3DZKI SZPITAL ZESPOLONY W KIELCACH","operator":"","address":"KIELCE,  25-317, UL RADIOWA 7","lat":50.87486545,"lon":20.6376982471,"point_type":"hospital","opening_hours":"24\/7","phone":"413637131","prepare_instruction":""},"17":{"name":"POWIATOWY ZAK\u0141AD OPIEKI ZDROWOTNEJ W STARACHOWICACH","operator":"","address":"STARACHOWICE, 27-200, RADOMSKA 70","lat":51.0641001,"lon":21.0723778,"point_type":"hospital","opening_hours":"24\/7","phone":"412739113","prepare_instruction":""},"18":{"name":"POWIATOWY ZAK\u0141AD OPIEKI ZDROWOTNEJ W STARACHOWICACH","operator":"","address":"STARACHOWICE, 27-200, RADOMSKA 70","lat":51.0641001,"lon":21.0723778,"point_type":"hospital","opening_hours":"24\/7","phone":"412739145","prepare_instruction":""},"19":{"name":"ZESP\u00d3\u0141 OPIEKI ZDROWOTNEJ W BUSKU-ZDROJU","operator":"","address":"BUSKO-ZDR\u00d3J, 28-100, UL BOHATER\u00d3W\nWARSZAWY 67","lat":50.468389,"lon":20.705502,"point_type":"hospital","opening_hours":"24\/7","phone":"413782404","prepare_instruction":""},"20":{"name":"ZESP\u00d3\u0141 OPIEKI ZDROWOTNEJ W BUSKU-ZDROJU","operator":"","address":"BOHATER\u00d3W WARSZAWY 67, 28-100 BUSKO-ZDR\u00d3J","lat":50.4680352,"lon":20.7046523104,"point_type":"hospital","opening_hours":"24\/7","phone":"413782401","prepare_instruction":""},"21":{"name":"\u015aWI\u0118TOKRZYSKIE CENTRUM PSYCHIATRII W MORAWICY","operator":"","address":"MORAWICA , 26-026, UL SPACEROWA 5","lat":50.78622,"lon":20.61331,"point_type":"hospital","opening_hours":"24\/7","phone":"413641234","prepare_instruction":""},"22":{"name":"UZDROWISKO BUSKO-ZDR\u00d3J S.A.","operator":"","address":"BUSKO-ZDR\u00d3J, 28-100,\nUL. GEN. F. RZEWUSKIEGO 1","lat":50.467279,"lon":20.719308,"point_type":"hospital","opening_hours":"24\/7","phone":"413703200","prepare_instruction":""},"23":{"name":"SANATORIUM UZDROWISKOWE \"MIKO\u0141AJ\"","operator":"","address":"BUSKO-ZDR\u00d3J, 28-100,\nUL. 1 MAJA 3","lat":50.4611425,"lon":20.7207556,"point_type":"hospital","opening_hours":"24\/7","phone":"413703226","prepare_instruction":""},"24":{"name":"\u015aWI\u0118TOKRZYSKIE CENTRUM RATOWNICTWA MEDYCZNEGO I TRANSPORTU SANITARNEGO W","operator":"","address":"KIELCE, 25-311, \u015aW. LEONARDA 10","lat":50.879655,"lon":20.628806,"point_type":"transport","opening_hours":"24\/7","phone":"413446503","prepare_instruction":""},"25":{"name":"SAMODZIELNY PUBLICZNY ZAK\u0141AD OPIEKI ZDROWOTNEJ W CZ\u0141UCHOWIE","operator":"","address":"CZ\u0141UCH\u00d3W \/ 77-300 \/ UL. SZCZECI\u0143SKA 16","lat":53.6609588,"lon":17.3536314,"point_type":"hospital","opening_hours":"24\/7","phone":"598342459","prepare_instruction":""},"26":{"name":"WOJEW\u00d3DZKI SZPITAL SPECJALISTYCZNY IM. JANUSZA KORCZAKA W S\u0141UPSKU SP\u00d3\u0141KA Z","operator":"","address":"S\u0141UPSK \/ 76-200 \/ UL. HUBALCZYK\u00d3W 1","lat":54.4516851,"lon":17.0637619,"point_type":"hospital","opening_hours":"24\/7","phone":"598460600","prepare_instruction":""},"27":{"name":"SZPITAL SPECJALISTYCZNY IM. J. K. \u0141UKOWICZA W CHOJNICACH","operator":"","address":"CHOJNICE \/ 89-600 \/ UL. LE\u015aNA 10","lat":53.7124365,"lon":17.5483145,"point_type":"hospital","opening_hours":"24\/7","phone":"523956769","prepare_instruction":""},"28":{"name":"7 SZPITAL MARYNARKI WOJENNEJ Z PRZYCHODNI\u0104 SAMODZIELNY PUBLICZNY","operator":"","address":"GDA\u0143SK80-305UL. POLANKI 117","lat":54.393883,"lon":18.56726,"point_type":"hospital","opening_hours":"24\/7","phone":"585526326","prepare_instruction":""},"29":{"name":"SAMODZIELNY PUBLICZNY ZAK\u0141AD OPIEKI ZDROWOTNEJ MINISTERSTWA SPRAW","operator":"","address":"GDA\u0143SK \/ 80-104 \/ UL. KARTUSKA 4\/6","lat":54.3507893,"lon":18.6353301,"point_type":"hospital","opening_hours":"24\/7","phone":"583098200","prepare_instruction":""},"30":{"name":"UNIWERSYTECKIE CENTRUM MEDYCYNY MORSKIEJ I TROPIKALNEJ","operator":"","address":"GDYNIA \/ 81-519 \/ UL. POWSTANIA STYCZNIOWEGO 9B","lat":54.4874074,"lon":18.5488374,"point_type":"hospital","opening_hours":"24\/7","phone":"586998506","prepare_instruction":""},"31":{"name":"SZPITALE TCZEWSKIE SP\u00d3\u0141KA AKCYJNA","operator":"","address":"TCZEW \/ 83-110 \/ UL. WOJSKA POLSKIEGO 5","lat":54.08610005,"lon":18.7898106452,"point_type":"hospital","opening_hours":"24\/7","phone":"587776673","prepare_instruction":""},"32":{"name":"POMORSKIE CENTRUM TOKSYKOLOGII SP\u00d3\u0141KA Z OGRANICZON\u0104","operator":"","address":"GDA\u0143SK \/ 80-104 \/ UL. KARTUSKA 4\/6","lat":54.3507893,"lon":18.6353301,"point_type":"hospital","opening_hours":"24\/7","phone":"586820404","prepare_instruction":""},"33":{"name":"SZPITAL DZIECI\u0118CY POLANKI IM. MACIEJA P\u0141A\u017bY\u0143SKIEGO W GDA\u0143SKU SP\u00d3\u0141KA Z","operator":"","address":"GDA\u0143SK \/ 80-308 \/ UL. POLANKI 119","lat":54.39553395,"lon":18.5610613992,"point_type":"hospital","opening_hours":"24\/7","phone":"585209300","prepare_instruction":""},"34":{"name":"SZPITAL SPECJALISTYCZNY W PRABUTACH SP\u00d3\u0141KA Z OGRANICZON\u0104","operator":"","address":"PRABUTY \/ 82-550 \/ UL. KURACYJNA 30","lat":53.7380131,"lon":19.2078884727,"point_type":"hospital","opening_hours":"24\/7","phone":"552624328","prepare_instruction":""},"35":{"name":"SZPITAL SPECJALISTYCZNY W KO\u015aCIERZYNIE SP\u00d3\u0141KA Z OGRANICZON\u0104","operator":"","address":"KO\u015aCIERZYNA \/ 83-400 \/ UL. ALOJZEGO PIECHOWSKIEGO 36","lat":54.1212073,"lon":17.9494612753,"point_type":"hospital","opening_hours":"24\/7","phone":"586860111","prepare_instruction":""},"36":{"name":"SZPITAL MIEJSKI W MIASTKU SP\u00d3\u0141KA Z OGRANICZON\u0104 ODPOWIEDZIALNO\u015aCI\u0104","operator":"","address":"MIASTKO77-200UL. GEN. J. WYBICKIEGO 30","lat":54.011965,"lon":16.984461,"point_type":"hospital","opening_hours":"24\/7","phone":"598570900,598570916,598570917,598570934,598570902","prepare_instruction":""},"37":{"name":"FALCK MEDYCYNA SP\u00d3\u0141KA Z OGRANICZON\u0104","operator":"","address":"WARSZAWA \/ 01-102 \/ UL.  JANA OLBRACHTA 94","lat":52.2345364,"lon":20.9288174842,"point_type":"hospital","opening_hours":"24\/7","phone":"225359100","prepare_instruction":""},"38":{"name":"MEGREZ SP\u00d3\u0141KA Z OGRANICZON\u0104 ODPOWIEDZIALNO\u015aCI\u0104","operator":"","address":"TYCHY 43-100 EDUKACJI 102","lat":50.11318685,"lon":19.0084217799,"point_type":"hospital","opening_hours":"24\/7","phone":"323255148","prepare_instruction":""},"39":{"name":"SZPITAL POLSKI IM. \u015aW. EL\u017bBIETY","operator":"","address":"TYCHY 43-100 EDUKACJI 102","lat":50.11318685,"lon":19.0084217799,"point_type":"hospital","opening_hours":"24\/7","phone":"327586701","prepare_instruction":""},"40":{"name":"SZPITAL POWIATOWY W ZAWIERCIU","operator":"","address":"ZAWIERCIE 42-400 MIODOWA 14","lat":50.48177495,"lon":19.4088093146,"point_type":"hospital","opening_hours":"24\/7","phone":"326740200","prepare_instruction":""},"41":{"name":"SZPITAL REJONOWY IM. DR. J\u00d3ZEFA ROSTKA W RACIBORZU","operator":"","address":"RACIB\u00d3RZ 47-400 GAMOWSKA 3","lat":50.1016677,"lon":18.2023529,"point_type":"hospital","opening_hours":"24\/7","phone":"327555000","prepare_instruction":""},"42":{"name":"ZDROWOTNEJ POLSKIEJ GRUPY MEDYCZNEJ IM. POLONII \u015aWIATA","operator":"","address":"RACIB\u00d3RZ 47-400 GAMOWSKA 3A","lat":50.1168972,"lon":18.1407407,"point_type":"hospital","opening_hours":"24\/7","phone":"324545985","prepare_instruction":""},"43":{"name":"SZPITAL SPECJALISTYCZNY NR 1 W BYTOMIU","operator":"","address":"BYTOM 41-902 STEFANA \u017bEROMSKIEGO 7","lat":50.35253005,"lon":18.9223490382,"point_type":"hospital","opening_hours":"24\/7","phone":"323963200","prepare_instruction":""},"44":{"name":"ODDZIA\u0141 OBSERWACYJNO-ZAKA\u0179NY","operator":"","address":"BYTOM 41-902 ALEJA LEGION\u00d3W 49","lat":50.35365345,"lon":18.911896361,"point_type":"hospital","opening_hours":"24\/7","phone":"322819241","prepare_instruction":""},"45":{"name":"SZPITAL SPECJALISTYCZNY W CHORZOWIE","operator":"","address":"CHORZ\u00d3W 41-500 ZJEDNOCZENIA 10","lat":50.292197,"lon":18.9531059408,"point_type":"hospital","opening_hours":"24\/7","phone":"323463615","prepare_instruction":""},"46":{"name":"WOJEW\u00d3DZKI SZPITAL SPECJALISTYCZNY IM. N.M.P.","operator":"","address":"CZ\u0118STOCHOWA 42-200 BIALSKA 104\/118","lat":50.83005025,"lon":19.0920863648,"point_type":"hospital","opening_hours":"24\/7","phone":"343673000","prepare_instruction":""},"47":{"name":"ODDZIA\u0141 OBSERWACYJNO-ZAKA\u0179NY","operator":"","address":"CZ\u0118STOCHOWA 42-200 PCK 7","lat":50.8295982,"lon":19.1129477513,"point_type":"hospital","opening_hours":"24\/7","phone":"343673015","prepare_instruction":""},"48":{"name":"ZESP\u00d3\u0141 ZAK\u0141AD\u00d3W OPIEKI ZDROWOTNEJ W CIESZYNIE","operator":"","address":"CIESZYN 43-400 BIELSKA 4","lat":49.7462769,"lon":18.6389878,"point_type":"hospital","opening_hours":"24\/7","phone":"338549200","prepare_instruction":""},"49":{"name":"404 SOSNOWCU","operator":"","address":"SOSNOWIEC 41-200 UL. TEATRALNA 9","lat":50.27057155,"lon":19.1252062487,"point_type":"hospital","opening_hours":"24\/7","phone":"323636032","prepare_instruction":""},"50":{"name":"BIELSKIE POGOTOWIE RATUNKOWE","operator":"","address":"BIELSKO-BIA\u0141A 43-300 UL. EMILII PLATER 14","lat":49.820159,"lon":19.0248275,"point_type":"hospital","opening_hours":"24\/7","phone":"338159045","prepare_instruction":""},"51":{"name":"WOJEW\u00d3DZKIE POGOTOWIE RATUNKOWE W KATOWICACH","operator":"","address":"KATOWICE 40-024 UL. POWSTA\u0143C\u00d3W 52","lat":50.2516874,"lon":19.0328129,"point_type":"hospital","opening_hours":"24\/7","phone":"326093140","prepare_instruction":""},"52":{"name":"SP ZOZ STACJA POGOTOWIA RATUNKOWEGO","operator":"","address":"CZ\u0118STOCHOWA 42-202 UL. JANA KILI\u0143SKIEGO 10","lat":50.81313105,"lon":19.11424039,"point_type":"transport","opening_hours":"24\/7","phone":"343785233","prepare_instruction":""},"53":{"name":"SP ZOZ ZESP\u00d3\u0141 OPIEKI ZDROWOTNEJ W LUBLI\u0143CU","operator":"","address":"LUBLINIEC 42-700 UL. SOBIESKIEGO 9","lat":50.66526685,"lon":18.6809904616,"point_type":"hospital","opening_hours":"24\/7","phone":"343506380","prepare_instruction":""},"54":{"name":"SP ZESP\u00d3\u0141 OPIEKI ZDROWOTNEJ W MYSZKOWIE","operator":"","address":"MYSZK\u00d3W 42-300 UL. ALEJA WOLNO\u015aCI 29","lat":50.5726125,"lon":19.3068908,"point_type":"hospital","opening_hours":"24\/7","phone":"343138880","prepare_instruction":""},"55":{"name":"WODZIS\u0141AWIU \u015aL\u0104SKIM Z SIEDZIB\u0104 W WODZIS\u0141AWIU \u015aL\u0104SKIM","operator":"","address":"WODZIS\u0141AW \u015aL\u0104SKI 44-300 UL. 26 MARCA 51","lat":50.0087305,"lon":18.4642327,"point_type":"hospital","opening_hours":"24\/7","phone":"324591800","prepare_instruction":""},"56":{"name":"ZESP\u00d3\u0141 OPIEKI ZDROWOTNEJ W K\u0141OBUCKU","operator":"","address":"K\u0141OBUCK 42-100 UL. 11 LISTOPADA 5C","lat":50.90664005,"lon":18.9374659398,"point_type":"hospital","opening_hours":"24\/7","phone":"343172206","prepare_instruction":""},"57":{"name":"472 WIECZOREK SP\u00d3\u0141KA JAWNA","operator":"","address":"BYTOM 41-902 UL. POWSTA\u0143C\u00d3W WARSZAWSKICH 64B\/1","lat":50.3481648,"lon":18.9156801,"point_type":"hospital","opening_hours":"24\/7","phone":"327454237","prepare_instruction":""},"58":{"name":"JURA RESCUE TEAM S.C.","operator":"","address":"ZAWIERCIE 42-400 UL. W\u0141ADYS\u0141AWA JAGIE\u0141\u0141Y 10","lat":50.4975902,"lon":19.42297,"point_type":"hospital","opening_hours":"24\/7","phone":"513131273","prepare_instruction":""},"59":{"name":"493 DANIEL PORC","operator":"","address":"D\u0104BROWA G\u00d3RNICZA 42-530 UL. MODRZEJOWSKA 2","lat":50.3106727,"lon":19.2848756,"point_type":"hospital","opening_hours":"24\/7","phone":"530234316","prepare_instruction":""},"60":{"name":"503 ESKULAP WYJAZDOWA POMOC MEDYCZNA","operator":"","address":"ZABRZE 41-818 UL. JANA HEWELIUSZA 13","lat":50.33025895,"lon":18.774613626,"point_type":"hospital","opening_hours":"24\/7","phone":"500047483","prepare_instruction":""},"61":{"name":"ODDZIA\u0141 CHOR\u00d3B ZAKA\u0179NYCH","operator":"","address":"OPOLE\/45-061\/ KATOWICKA 64","lat":50.67073455,"lon":17.9362909487,"point_type":"hospital","opening_hours":"24\/7","phone":"774433043","prepare_instruction":""},"62":{"name":"ODDZIA\u0141 ANESTEZJOLOGII I INTENSYWNEJ TERAPII","operator":"","address":"OPOLE\/45-061\/ KATOWICKA 64","lat":50.67073455,"lon":17.9362909487,"point_type":"hospital","opening_hours":"24\/7","phone":"774433599,774433385,774433386,774433316,774433315","prepare_instruction":""},"63":{"name":"ODDZIA\u0141 PULMONOLOGII","operator":"","address":"OPOLE\/45-061\/ KATOWICKA 64","lat":50.67073455,"lon":17.9362909487,"point_type":"hospital","opening_hours":"24\/7","phone":"774433284,774433253,774433241,774433282,774433285","prepare_instruction":""},"64":{"name":"SP ZAK\u0141AD OPIEKI ZDROWOTNEJ MSWIA W OPOLU","operator":"","address":"OPOLE\/45-075\/KRAKOWSKA 44","lat":50.6633741,"lon":17.9253812436,"point_type":"hospital","opening_hours":"24\/7","phone":"774011100","prepare_instruction":""},"65":{"name":"SP ZESP\u00d3\u0141 OPIEKI ZDROWOTNEJ W K\u0118DZIERZYNIE-KO\u0179LU","operator":"","address":"K\u0118DZIERZYN-KO\u0179LE\/47-200\/ 24 KWIETNIA 5","lat":50.33216785,"lon":18.1497321431,"point_type":"hospital","opening_hours":"24\/7","phone":"774062500","prepare_instruction":""},"66":{"name":"BRZESKIE CENTRUM MEDYCZNE","operator":"","address":"BRZEG49-301SERGIUSZA MOSSORA 1","lat":50.857257,"lon":17.477543,"point_type":"hospital","opening_hours":"24\/7","phone":"774446536","prepare_instruction":""},"67":{"name":"ODDZIA\u0141 ANESTEZJOLOGII I INTENSYWNEJ TERAPII","operator":"","address":"BRZEG49-301SERGIUSZA MOSSORA 1","lat":50.857257,"lon":17.477543,"point_type":"hospital","opening_hours":"24\/7","phone":"774446614,774446610,774446609","prepare_instruction":""},"68":{"name":"ODDZIA\u0141 CHOR\u00d3B WEWN\u0118TRZNYCH","operator":"","address":"G\u0141UBCZYCE48-100SK\u0141ODOWSKIEJ 26","lat":50.91148,"lon":13.318443,"point_type":"hospital","opening_hours":"24\/7","phone":"774801109,774801107,774801108","prepare_instruction":""},"69":{"name":"POWIATOWE CENTRUM ZDROWIA S.A. W KLUCZBORKU","operator":"","address":"KLUCZBORK46-200SK\u0141ODOWSKIEJ-CURIE 23","lat":50.911207,"lon":13.31769,"point_type":"hospital","opening_hours":"24\/7","phone":"774173500","prepare_instruction":""},"70":{"name":"ODDZIA\u0141 CHOR\u00d3B WEWN\u0118TRZNYCH","operator":"","address":"KLUCZBORK46-200SK\u0141ODOWSKIEJ-CURIE 23","lat":50.911207,"lon":13.31769,"point_type":"hospital","opening_hours":"24\/7","phone":"774173561,774173559,774173558,774173560,774173565","prepare_instruction":""},"71":{"name":"OPOLSKIE CENTRUM RATOWNICTWA MEDYCZNEGO","operator":"","address":"OPOLE\/45-369 \/ADAMA MICKIEWICZA 2-4","lat":50.6664716,"lon":17.9381356,"point_type":"hospital","opening_hours":"24\/7","phone":"774413639","prepare_instruction":""},"72":{"name":"ZESP\u00d3\u0141 TRANSPORTU SANITARNEGO","operator":"","address":"OPOLE\/45-369 \/ADAMA MICKIEWICZA 2-4","lat":50.6664716,"lon":17.9381356,"point_type":"transport","opening_hours":"24\/7","phone":"600498685,690497875,774413600,775513601","prepare_instruction":""},"73":{"name":"KLINICZNE CENTRUM GINEKOLOGII, PO\u0141O\u017bNICTWA I NEONATOLOGII W OPOLU","operator":"","address":"OPOLE\/45-057\/REYMONTA 8","lat":50.66681125,"lon":17.9284108619,"point_type":"hospital","opening_hours":"24\/7","phone":"774545401","prepare_instruction":""},"74":{"name":"WOJEW\u00d3DZKI SZPITAL SPECJALISTYCZNY IM. \u015aW. JADWIGI W OPOLU","operator":"","address":"OPOLE\/ 45-221\/WODOCI\u0104GOWA 4","lat":50.6760187,"lon":17.9405645949,"point_type":"hospital","opening_hours":"24\/7","phone":"775414200","prepare_instruction":""},"75":{"name":"PRUDNICKIE CENTRUM MEDYCZNE SP\u00d3\u0141KA AKCYJNA W PRUDNIKU","operator":"","address":"PRUDNIK\/ 48-200\/SZPITALNA 14","lat":50.32361145,"lon":17.5692491746,"point_type":"hospital","opening_hours":"24\/7","phone":"774067800","prepare_instruction":""},"76":{"name":"SZPITAL OG\u00d3LNY IM. DR WITOLDA GINELA W GRAJEWIE","operator":"","address":"GRAJEWO 19-200, KONSTYTUCJI 3 MAJA 34","lat":53.64611755,"lon":22.4699462806,"point_type":"hospital","opening_hours":"24\/7","phone":"862723271","prepare_instruction":""},"77":{"name":"PRZEDSI\u0118BIORSTWO OPIEKI SZPITALNEJ - ODDZIA\u0141 OBSERWACYJNO - ZAKA\u0179NY","operator":"","address":"GRAJEWO 19-200, KONSTYTUCJI 3 MAJA 34","lat":53.64611755,"lon":22.4699462806,"point_type":"hospital","opening_hours":"24\/7","phone":"862723271","prepare_instruction":""},"78":{"name":"SAMODZIELNY PUBLICZNY ZAK\u0141AD OPIEKI ZDROWOTNEJ W AUGUSTOWIE","operator":"","address":"AUGUST\u00d3W, 16-300, SZPITALNA 12","lat":53.8480175,"lon":22.9887483,"point_type":"hospital","opening_hours":"24\/7","phone":"876444284","prepare_instruction":""},"79":{"name":"SZPITAL - ODDZIA\u0141 OBSERWACYJNO - ZAKA\u0179NY","operator":"","address":"AUGUST\u00d3W, 16-300, SZPITALNA 12","lat":53.8480175,"lon":22.9887483,"point_type":"hospital","opening_hours":"24\/7","phone":"876444250","prepare_instruction":""},"80":{"name":"SAMODZIELNY PUBLICZNY ZAK\u0141AD OPIEKI ZDROWOTNEJ W HAJN\u00d3WCE","operator":"","address":"HAJN\u00d3WKA, 17-200 DOC. ADAMA\nDOWGIRDA, 9","lat":52.741585,"lon":23.586658,"point_type":"hospital","opening_hours":"24\/7","phone":"856829202","prepare_instruction":""},"81":{"name":"SZPITAL IM. LEK. W\u0141ODZIMIERZA MANTIUKA - ODDZIA\u0141 OBSERWACYJNO-","operator":"","address":"HAJN\u00d3WKA, 17-200, DOC. ADAMA\nDOWGIRDA, 9","lat":52.741585,"lon":23.586658,"point_type":"hospital","opening_hours":"24\/7","phone":"606997561","prepare_instruction":""},"82":{"name":"SZPITAL WOJEW\u00d3DZKI IM. KARDYNA\u0141A STEFANA WYSZY\u0143SKIEGO W \u0141OM\u017bY","operator":"","address":"676 PI\u0141SUDSKIEGO 11","lat":53.7728761,"lon":20.5003733,"point_type":"hospital","opening_hours":"24\/7","phone":"864733624","prepare_instruction":""},"83":{"name":"SZPITAL SPECJALISTYCZNY - KLINIKA CHOR\u00d3B ZAKA\u0179NYCH I NEUROINFEKCJI","operator":"","address":"15-540 BIA\u0141YSTOK UL. \u017bURAWIA 14","lat":53.1097655,"lon":23.1891930013,"point_type":"hospital","opening_hours":"24\/7","phone":"857409573","prepare_instruction":""},"84":{"name":"UNIWERSYTECKI DZIECI\u0118CY SZPITAL KLINICZNY IM. L. ZAMENHOFA W","operator":"","address":"BIA\u0141YSTOK 15-274, JERZEGO\nWASZYNGTONA, 17","lat":53.124021,"lon":23.155517,"point_type":"hospital","opening_hours":"24\/7","phone":"857450500","prepare_instruction":""},"85":{"name":"DZIECI\u0118CY SZPITAL UNIWERSYTECKI - KLINIKA OBSERWACYJNO - ZAKA\u0179NA DZIECI","operator":"","address":"BIA\u0141YSTOK 15-274, JERZEGO\nWASZYNGTONA, 17","lat":53.124021,"lon":23.155517,"point_type":"hospital","opening_hours":"24\/7","phone":"857450693","prepare_instruction":""},"86":{"name":"WOJEW\u00d3DZKA STACJA POGOTOWIA RATUNKOWEGO SP ZOZ W SUWA\u0141KACH","operator":"","address":"UL. MICKIEWICZA 11, 16-400 SUWA\u0141KI","lat":54.063077,"lon":22.964111,"point_type":"transport","opening_hours":"24\/7","phone":"875662268","prepare_instruction":""},"87":{"name":"WOJEW\u00d3DZKA STACJA POGOTOWIA RATUNKOWEGO SAMODZIELNY PUBLICZNY","operator":"","address":"UL. SZOSA ZAMBROWSKA 1\/19, 18-400\n\u0141OM\u017bA","lat":53.174714,"lon":22.07887,"point_type":"transport","opening_hours":"24\/7","phone":"862166215","prepare_instruction":""},"88":{"name":"SAMODZIELNY PUBLICZNY ZAK\u0141AD OPIEKI ZDROWOTNEJ WOJEW\u00d3DZKA STACJA","operator":"","address":"UL. POLESKA 89, 15-874 BIA\u0141YSTOK","lat":53.13769,"lon":23.144253,"point_type":"hospital","opening_hours":"24\/7","phone":"856637301","prepare_instruction":""},"89":{"name":"SAMODZIELNY PUBLICZNY ZAK\u0141AD OPIEKI ZDROWOTNEJ MINISTERSTWA SPRAW","operator":"","address":"BIA\u0141YSTOK, 15-471, UL. FABRYCZNA 27","lat":53.13935395,"lon":23.1658275038,"point_type":"hospital","opening_hours":"24\/7","phone":"858693550","prepare_instruction":""},"90":{"name":"STOWARZYSZENIE POMOCY RODZINOM\n\"NADZIEJA\"","operator":"","address":"\u0141OM\u017bA, 18-400, UL. ZAWADZKA 55","lat":53.1578185,"lon":22.0757325555,"point_type":"hospital","opening_hours":"24\/7","phone":"600101162","prepare_instruction":""},"91":{"name":"SZPITAL UNIWERSYTECKI W KRAKOWIE - SAMODZIELNY PUBLICZNY ZAK\u0141AD OPIEKI ZDROWOTNEJ","operator":"","address":"KRAK\u00d3W, 30-688,  UL. M. JAKUBOWSKIEGO 2","lat":50.052652,"lon":19.987345,"point_type":"hospital","opening_hours":"24\/7","phone":"124002000","prepare_instruction":""},"92":{"name":"SZPITAL SPECJALISTYCZNY IM. STEFANA \u017bEROMSKIEGO SAMODZIELNY PUBLICZNY ZAK\u0141AD OPIEKI ZDROWOTNEJ W KRAKOWIE","operator":"","address":"KRAK\u00d3W, 31-913, OS. NA SKARPIE 66","lat":50.06550345,"lon":20.0461958963,"point_type":"hospital","opening_hours":"24\/7","phone":"126229403,126229390,126229502","prepare_instruction":""},"93":{"name":"SPECJALISTYCZNY SZPITAL IM. E. SZCZEKLIKA W TARNOWIE","operator":"","address":"TARN\u00d3W, 33-100, UL. SZPITALNA 13","lat":50.0161723,"lon":20.9947686,"point_type":"hospital","opening_hours":"24\/7","phone":"146310100","prepare_instruction":""},"94":{"name":"SPECJALISTYCZNY SZPITAL IM. E. SZCZEKLIKA W TARNOWIE","operator":"","address":"TARN\u00d3W, 33-100, UL. SZPITALNA 13","lat":50.0161723,"lon":20.9947686,"point_type":"hospital","opening_hours":"24\/7","phone":"146310498,146310419,146310508","prepare_instruction":""},"95":{"name":"SZPITAL SPECJALISTYCZNY IM. J\u0118DRZEJA \u015aNIADECKIEGO W NOWYM S\u0104CZU","operator":"","address":"NOWY S\u0104CZ, 33 - 300, UL. M\u0141Y\u0143SKA 10","lat":49.61975215,"lon":20.7003043173,"point_type":"hospital","opening_hours":"24\/7","phone":"8184438877","prepare_instruction":""},"96":{"name":"SZPITAL SPECJALISTYCZNY IM. J\u0118DRZEJA \u015aNIADECKIEGO W NOWYM S\u0104CZU","operator":"","address":"D\u0104BROWA 1, WIELOG\u0141OWY 33-311","lat":49.6731,"lon":20.69125,"point_type":"hospital","opening_hours":"24\/7","phone":"8184432123","prepare_instruction":""},"97":{"name":"NOWY SZPITAL W OLKUSZU SP\u00d3\u0141KA Z OGRANICZON\u0104 ODPOWIEDZIALNO\u015aCI\u0104","operator":"","address":"OLKUSZ, 32-300, UL. 1000-LECIA 13","lat":50.268612,"lon":19.570096,"point_type":"hospital","opening_hours":"24\/7","phone":"8412401200","prepare_instruction":""},"98":{"name":"SAMODZIELNY PUBLICZNY ZESP\u00d3\u0141 OPIEKI ZDROWOTNEJ W PROSZOWICACH","operator":"","address":"PROSZOWICE, 32-100, UL. MIKO\u0141AJA KOPERNIKA 13","lat":50.1859056,"lon":20.2990295,"point_type":"hospital","opening_hours":"24\/7","phone":"123865210,123865211,123865160","prepare_instruction":""},"99":{"name":"SZPITAL \u015aW. ANNY W MIECHOWIE","operator":"","address":"MIECH\u00d3W, 32-200, UL. SZPITALNA 3","lat":50.3539707,"lon":20.0345555,"point_type":"hospital","opening_hours":"24\/7","phone":"413820100","prepare_instruction":""},"100":{"name":"SZPITAL \u015aW. ANNY W MIECHOWIE","operator":"","address":"MIECH\u00d3W, 32-200, UL. SZPITALNA 3","lat":50.3539707,"lon":20.0345555,"point_type":"hospital","opening_hours":"24\/7","phone":"413820289,413820364,413820299","prepare_instruction":""},"101":{"name":"SAMODZIELNY PUBLICZNY ZAK\u0141AD OPIEKI ZDROWOTNEJ - S\u0104DECKIE POGOTOWIE RATUNKOWE","operator":"","address":"UL. \u015aNIADECKICH 15, 33-300 NOWY S\u0104CZ","lat":49.6167789,"lon":20.7033002,"point_type":"hospital","opening_hours":"24\/7","phone":"8184420949","prepare_instruction":""},"102":{"name":"PODHALA\u0143SKI SZPITAL SPECJALISTYCZNY IM. JANA PAW\u0141A II W NOWYM TARGU","operator":"","address":"UL. SZPITALNA 14, 34-400 NOWY TARG","lat":49.49013635,"lon":20.027619343,"point_type":"hospital","opening_hours":"24\/7","phone":"8182633001","prepare_instruction":""},"103":{"name":"MA\u0141OPOLSKA KOLUMNA TRANSPORTU SANITARNEGO W TARNOWIE","operator":"","address":"UL. CHYSZOWSKA 10, 33-100 TARN\u00d3W","lat":50.00912965,"lon":20.9593948982,"point_type":"transport","opening_hours":"24\/7","phone":"8146210498","prepare_instruction":""},"104":{"name":"SZPITAL POWIATOWY W LIMANOWEJ IMIENIA MI\u0141OSIERDZIA BO\u017bEGO","operator":"","address":"UL. PI\u0141SUDSKIEGO 61, 34-600 LIMANOWA","lat":49.716558,"lon":20.413766,"point_type":"hospital","opening_hours":"24\/7","phone":"8183301700","prepare_instruction":""},"105":{"name":"POWIATOWA STACJA POGOTOWIA RATUNKOWEGO W TARNOWIE","operator":"","address":"AL. MATKI BO\u017bEJ FATIMSKIEJ  2, 33-100 TARN\u00d3W","lat":50.016426,"lon":20.9918184556,"point_type":"transport","opening_hours":"24\/7","phone":"8146217791","prepare_instruction":""},"106":{"name":"SAMODZIELNY PUBLICZNY SZPITAL KLINICZNY NR1 W LUBLINIE,","operator":"","address":"LUBLIN, 20-081,  UL. STASZICA 16","lat":51.2506105,"lon":22.5625164073,"point_type":"hospital","opening_hours":"24\/7","phone":"815323935","prepare_instruction":""},"107":{"name":"LECZNICTWO SZPITALNE SPSK NR 1 W LUBLINIE","operator":"","address":"LUBLIN, 20-081,  UL. STASZICA 16","lat":51.2506105,"lon":22.5625164073,"point_type":"hospital","opening_hours":"24\/7","phone":"815323935","prepare_instruction":""},"108":{"name":"SAMODZIELNY PUBLICZNY ZAK\u0141AD OPIEKI ZDROWOTNEJ W \u0141UKOWIE","operator":"","address":"\u0141UK\u00d3W, 21-400,  UL. DOKTORA A. ROGALI\u0143SKIEGO 3","lat":51.931985,"lon":22.379575,"point_type":"hospital","opening_hours":"24\/7","phone":"257982980","prepare_instruction":""},"109":{"name":"SAMODZIELNY PUBLICZNY SZPITAL WOJEW\u00d3DZKI IM. JANA BO\u017bEGO W LUBLINIE","operator":"","address":"LUBLIN,  20-089, UL. MIECZYS\u0141AWA BIERNACKIEGO 9","lat":51.25574145,"lon":22.5676711866,"point_type":"hospital","opening_hours":"24\/7","phone":"817402039","prepare_instruction":""},"110":{"name":"WOJEW\u00d3DZKI SZPITAL SPECJALISTYCZNY W BIA\u0141EJ PODLASKIEJ","operator":"","address":"BIA\u0141A PODLASKA, 21-500 , UL. TEREBELSKA 57-65","lat":52.0465,"lon":23.11073,"point_type":"hospital","opening_hours":"24\/7","phone":"834147211","prepare_instruction":""},"111":{"name":"SAMODZIELNY PUBLICZNY WOJEW\u00d3DZKI SZPITAL SPECJALISTYCZNY W CHE\u0141MIE-SZPITAL","operator":"","address":"CHE\u0141M, 22-100,  UL. SZPITALNA 53B","lat":51.1486152,"lon":23.4564193,"point_type":"hospital","opening_hours":"24\/7","phone":"825623223","prepare_instruction":""},"112":{"name":"SAMODZIELNY PUBLICZNY ZESP\u00d3\u0141 OPIEKI ZDROWOTNEJ W TOMASZOWIE LUBELSKIM","operator":"","address":"TOMASZ\u00d3W LUBELSKI, 22-600 , UL. ALEJE GRUNWALDZKIE 1","lat":50.443058,"lon":23.4159827,"point_type":"hospital","opening_hours":"24\/7","phone":"846644411","prepare_instruction":""},"113":{"name":"SZPITAL","operator":"","address":"TOMASZ\u00d3W LUBELSKI, 22-600 , UL. ALEJE GRUNWALDZKIE 1","lat":50.443058,"lon":23.4159827,"point_type":"hospital","opening_hours":"24\/7","phone":"846644411","prepare_instruction":""},"114":{"name":"SAMODZIELNY PUBLICZNY ZAK\u0141AD OPIEKI ZDROWOTNEJ W PU\u0141AWACH","operator":"","address":"PU\u0141AWY, 24-100 , UL. J\u00d3ZEFA BEMA 1","lat":51.420829,"lon":21.9750042,"point_type":"hospital","opening_hours":"24\/7","phone":"814502274","prepare_instruction":""},"115":{"name":"SZPITAL","operator":"","address":"BI\u0141GORAJ, 23-400, UL. POJASKA 5","lat":50.52952125,"lon":22.7136909065,"point_type":"hospital","opening_hours":"24\/7","phone":"846882205","prepare_instruction":""},"116":{"name":"SAMODZIELNA PUBLICZNA STACJA POGOTOWIA RATUNKOWEGO I TRANSPORTU SANITARNEGO W ZAMO\u015aCIU","operator":"","address":"ZAMO\u015a\u0106, 22-400 , STAROWIEJSKA 23","lat":50.7315779,"lon":23.273673,"point_type":"transport","opening_hours":"24\/7","phone":"846384065","prepare_instruction":""},"117":{"name":"WOJEW\u00d3DZKIE POGOTOWIE RATUNKOWE SAMODZIELNY PUBLICZNY ZAK\u0141AD OPIEKI ZDROWOTNEJ W LUBLINIE","operator":"","address":"LUBLIN, 20-043, UL. SPADOCHRONIARZY 8","lat":51.2482238,"lon":22.5320237,"point_type":"hospital","opening_hours":"24\/7","phone":"815337790","prepare_instruction":""},"118":{"name":"STACJA POGOTOWIA RATUNKOWEGO SAMODZIELNY PUBLICZNY ZAK\u0141AD OPIEKI ZDROWOTNEJ W BIA\u0141EJ PODLASKIEJ","operator":"","address":"BIA\u0141A PODLASKA, 21-500, WARSZAWSKA 20","lat":52.03124105,"lon":23.1096546085,"point_type":"transport","opening_hours":"24\/7","phone":"833434068","prepare_instruction":""},"119":{"name":"STACJA RATOWNICTWA MEDYCZNEGO W CHE\u0141MIE SPZOZ","operator":"","address":"CHE\u0141M, 22-100 , REJOWIECKA 128","lat":51.1463962,"lon":23.4373763,"point_type":"transport","opening_hours":"24\/7","phone":"825655234","prepare_instruction":""},"120":{"name":"SZPITAL UNIWERSYTECKI IMIENIA KAROLA MARCINKOWSKIEGO W ZIELONEJ G\u00d3RZE SP\u00d3\u0141KA Z OGRANICZON\u0104 ODPOWIEDZIALNO\u015aCI\u0104","operator":"","address":"ZIELONA G\u00d3RA\/ 65-046\/ UL. ZYTY 26","lat":51.94147015,"lon":15.5194597114,"point_type":"hospital","opening_hours":"24\/7","phone":"683296478,683296481,683296200","prepare_instruction":""},"121":{"name":"WIELOSPECJALISTYCZNY SZPITAL WOJEW\u00d3DZKI W GORZOWIE WLKP. SP\u00d3\u0141KA Z OGRANICZON\u0104 ODPOWIEDZIALNO\u015aCI\u0104","operator":"","address":"GORZ\u00d3W WIELKOPOLSKI\/ 66-400\/ UL. JANA DEKERTA 1","lat":52.7635523,"lon":15.2377100726,"point_type":"hospital","opening_hours":"24\/7","phone":"957332249","prepare_instruction":""},"122":{"name":"ODDZIA\u0141 ANESTEZJOLOGII I INTENSYWNEJ TERAPII","operator":"","address":"GORZ\u00d3W WIELKOPOLSKI\/ 66-400\/ UL. FRANCISZKA WALCZAKA 42","lat":52.75751395,"lon":15.2700392253,"point_type":"hospital","opening_hours":"24\/7","phone":"957332258","prepare_instruction":""},"123":{"name":"105. KRESOWY SZPITAL WOJSKOWY Z PRZYCHODNI\u0104 SAMODZIELNY PUBLICZNY ZAK\u0141AD OPIEKI ZDROWOTNEJ","operator":"","address":"\u017bARY\/ 68-200\/ UL. DOMA\u0143SKIEGO 2","lat":51.6415692,"lon":15.1484862622,"point_type":"hospital","opening_hours":"24\/7","phone":"684708849","prepare_instruction":""},"124":{"name":"ODDZIA\u0141 PO\u0141O\u017bNICZO-GINEKOLOGICZNY","operator":"","address":"\u017bAGA\u0143\/ 68-100\/ UL. \u017bELAZNA 1A","lat":51.6124839,"lon":15.3319936397,"point_type":"hospital","opening_hours":"24\/7","phone":"684772308","prepare_instruction":""},"125":{"name":"ODDZIA\u0141 NOWORODKOWY","operator":"","address":"\u017bAGA\u0143\/ 68-100\/ UL. \u017bELAZNA 1A","lat":51.6124839,"lon":15.3319936397,"point_type":"hospital","opening_hours":"24\/7","phone":"684772312","prepare_instruction":""},"126":{"name":"ODDZIA\u0141 PULMONOLOGII Z PODODDZIA\u0141EM CHOR\u00d3B WEWN\u0118TRZNYCH","operator":"","address":"\u017bAGA\u0143\/ 68-100\/ UL. \u017bELAZNA 1A","lat":51.6124839,"lon":15.3319936397,"point_type":"hospital","opening_hours":"24\/7","phone":"684772293","prepare_instruction":""},"127":{"name":"WOJEW\u00d3DZKI SZPITAL ZAKA\u0179NY W WARSZAWIE","operator":"","address":"01-201 WARSZAWA, UL. WOLSKA 37","lat":52.2344027,"lon":20.9719530132,"point_type":"hospital","opening_hours":"24\/7","phone":"223355261","prepare_instruction":""},"128":{"name":"CHOROBY ZAKA\u0179NE","operator":"","address":"01-201 WARSZAWA, UL. WOLSKA 37","lat":52.2344027,"lon":20.9719530132,"point_type":"hospital","opening_hours":"24\/7","phone":"223355261","prepare_instruction":""},"129":{"name":"MAZOWIECKI SZPITAL SPECJALISTYCZNY IM. DR. J\u00d3ZEFA PSARSKIEGO W OSTRO\u0141\u0118CE","operator":"","address":"07-410 OSTRO\u0141\u0118KA, AL. JANA PAW\u0141A II 120A","lat":53.0623124,"lon":21.5901177,"point_type":"hospital","opening_hours":"24\/7","phone":"297651263,297651254,297652118","prepare_instruction":""},"130":{"name":"CHOROBY ZAKA\u0179NE","operator":"","address":"07-410 OSTRO\u0141\u0118KA, AL. JANA PAW\u0141A II 120A","lat":53.0623124,"lon":21.5901177,"point_type":"hospital","opening_hours":"24\/7","phone":"297651263,297651254,297652118","prepare_instruction":""},"131":{"name":"SAMODZIELNY PUBLICZNY ZAK\u0141AD OPIEKI ZDROWOTNEJ W SIEDLCACH","operator":"","address":"08 -110 SIEDLCE, UL. JANA KILI\u0143SKIEGO 29","lat":52.1629329,"lon":22.275448,"point_type":"hospital","opening_hours":"24\/7","phone":"256322061","prepare_instruction":""},"132":{"name":"WOJSKOWY INSTYTUT MEDYCZNY CENTRALNEGO SZPITALA KLINICZNEGO MINISTRESTWA OBRONY NARODOWEJ","operator":"","address":"04-141 WARSZAWA, UL. SZASER\u00d3W 128","lat":52.25207525,"lon":21.0890925738,"point_type":"hospital","opening_hours":"24\/7","phone":"261818622","prepare_instruction":""},"133":{"name":"CHOROBY ZAKA\u0179NE","operator":"","address":"04-141 WARSZAWA, UL. SZASER\u00d3W 128","lat":52.25207525,"lon":21.0890925738,"point_type":"hospital","opening_hours":"24\/7","phone":"261818627","prepare_instruction":""},"134":{"name":"UNIWERSYTECKIE CENTRUM KLINICZNE WARSZAWSKIEGO UNIWERSYTETU MEDYCZNEGO - DZIECI\u0118CY SZPITAL KLINICZNY IM. J\u00d3ZEFA POLIKARPA BRUDZI\u0143SKIEGO W WARSZAWIE","operator":"","address":"02-097 WARSZAWA, UL. BANACHA 1A","lat":52.2098474,"lon":20.9843448,"point_type":"hospital","opening_hours":"24\/7","phone":"223179231","prepare_instruction":""},"135":{"name":"CHOROBY ZAKA\u0179NE","operator":"","address":"02-091 WARSZAWA, UL. \u017bWIRKI I WIGURY 63 A","lat":52.2019173,"lon":20.9848334,"point_type":"hospital","opening_hours":"24\/7","phone":"223179231","prepare_instruction":""},"136":{"name":"SPECJALISTYCZNY SZPITAL WOJEW\u00d3DZKI W CIECHANOWIE","operator":"","address":"06-400 CIECHAN\u00d3W, UL. POWSTA\u0143C\u00d3W WIELKOPOLSKICH 2","lat":52.8835407,"lon":20.6345738606,"point_type":"hospital","opening_hours":"24\/7","phone":"236730277","prepare_instruction":""},"137":{"name":"CHOROBY ZAKA\u0179NE","operator":"","address":"06-400 CIECHAN\u00d3W, UL. POWSTA\u0143C\u00d3W WIELKOPOLSKICH 2","lat":52.8835407,"lon":20.6345738606,"point_type":"hospital","opening_hours":"24\/7","phone":"236730277","prepare_instruction":""},"138":{"name":"RADOMSKI SZPITAL SPECJALISTYCZNY IM. TYTUSA CHA\u0141UBI\u0143SKIEGO","operator":"","address":"26-610 RADOM, UL. LEKARSKA","lat":51.4001093,"lon":21.1459725,"point_type":"hospital","opening_hours":"24\/7","phone":"483615220","prepare_instruction":""},"139":{"name":"CHOROBY ZAKA\u0179NE","operator":"","address":"26-610 RADOM, UL. TOCHTERMANA 1","lat":51.3998949,"lon":21.1458909,"point_type":"hospital","opening_hours":"24\/7","phone":"483615220","prepare_instruction":""},"140":{"name":"CENTRALNY SZPITAL KLINICZNY MINISTERSTWA SPRAW WEWN\u0118TRZNYCH I ADMINISTRACJI W WARSZAWIE","operator":"","address":"02-507 WARSZAWA, UL. WO\u0141OSKA 137","lat":52.19902895,"lon":20.9983573717,"point_type":"hospital","opening_hours":"24\/7","phone":"225081850","prepare_instruction":""},"141":{"name":"ZESP\u00d3\u0141 OPIEKI ZDROWOTNEJ W NYSIE","operator":"","address":"NYSA\/48-300\/BOHATER\u00d3W WARSZAWY 34","lat":50.47106205,"lon":17.3283169277,"point_type":"hospital","opening_hours":"24\/7","phone":"774087830","prepare_instruction":""},"142":{"name":"ODDZIA\u0141 OBSERWACYJNO-ZAKA\u0179NY","operator":"","address":"NYSA\/48-300\/ BOHATER\u00d3W WARSZAWY 34","lat":50.47106205,"lon":17.3283169277,"point_type":"hospital","opening_hours":"24\/7","phone":"774087956","prepare_instruction":""},"143":{"name":"ODDZIA\u0141 ANESTEZJOLOGII I INTENSYWNEJ TERAPII","operator":"","address":"NYSA\/48-300\/ BOHATER\u00d3W WARSZAWY 23","lat":50.47137455,"lon":17.329402874,"point_type":"hospital","opening_hours":"24\/7","phone":"774087942","prepare_instruction":""},"144":{"name":"UNIWERSYTECKI SZPITAL KLINICZNY W OPOLU","operator":"","address":"OPOLE\/ 45-401\/ALEJA WINCENTEGO WITOSA 26","lat":50.6766038,"lon":17.9753298,"point_type":"hospital","opening_hours":"24\/7","phone":"774520745","prepare_instruction":""},"145":{"name":"ODDZIA\u0141 ANESTEZJOLOGII I INTENSYWNEJ TERAPII","operator":"","address":"OPOLE\/ 45-401\/ALEJA WINCENTEGO WITOSA 26","lat":50.6766038,"lon":17.9753298,"point_type":"hospital","opening_hours":"24\/7","phone":"774520300,774520302,774520304,774520305","prepare_instruction":""},"146":{"name":"1295 RYDYGIERA W SUWA\u0141KACH","operator":"","address":"SUWA\u0141KI, 16-400, SZPITALNA, 60","lat":54.1190623,"lon":22.9262896196,"point_type":"hospital","opening_hours":"24\/7","phone":"875629421","prepare_instruction":""},"147":{"name":"1302 CHOR\u00d3B ZAKA\u0179NYCH","operator":"","address":"SUWA\u0141KI, 16-400, SZPITALNA, 60","lat":54.1190623,"lon":22.9262896196,"point_type":"hospital","opening_hours":"24\/7","phone":"875629215","prepare_instruction":""},"148":{"name":"LUBUSKI SZPITAL SPECJALISTYCZNY PULMONOLOGICZNO-KARDIOLOGICZNY W TORZYMIU SP\u00d3\u0141KA Z OGRANICZON\u0104 ODPOWIEDZIALNO\u015aCI\u0104","operator":"","address":"TORZYM\/ 66-235\/ UL. WOJSKA POLSKIEGO 52","lat":52.3148823,"lon":15.0632145,"point_type":"hospital","opening_hours":"24\/7","phone":"683416300","prepare_instruction":""},"149":{"name":"ODDZIA\u0141 GRU\u0179LICY I CHOR\u00d3B P\u0141UC*","operator":"","address":"TORZYM\/ 66-235\/ UL. WOJSKA POLSKIEGO 52","lat":52.3148823,"lon":15.0632145,"point_type":"hospital","opening_hours":"24\/7","phone":"683416300","prepare_instruction":""},"150":{"name":"NOWY SZPITAL W SZPROTAWIE SP\u00d3\u0141KA Z OGRANICZON\u0104 ODPOWIEDZIALNO\u015aCI\u0104","operator":"","address":"SZPROTAWA\/ 67-300\/  UL. HENRYKOWSKA 1","lat":51.56724245,"lon":15.5529162295,"point_type":"hospital","opening_hours":"24\/7","phone":"412403628","prepare_instruction":""},"151":{"name":"ODDZIA\u0141 PEDIATRYCZNY","operator":"","address":"SZPROTAWA\/ 67-300\/  UL. HENRYKOWSKA 1","lat":51.56724245,"lon":15.5529162295,"point_type":"hospital","opening_hours":"24\/7","phone":"412403646","prepare_instruction":""},"152":{"name":"PARAMEDIC 24 SP. Z O. O.","operator":"","address":"SZCZECIN71-040GEN. J\u00d3ZEFA HALLERA 11","lat":53.466021,"lon":18.025171,"point_type":"hospital","opening_hours":"24\/7","phone":"601632822","prepare_instruction":""},"153":{"name":"116 SZPITAL WOJSKOWY Z PRZYCHODNI\u0104 SAMODZIELNY PUBLICZNY ZAK\u0141AD OPIEKI ZDROWOTNEJ","operator":"","address":"OPOLE 45-759WALEREGO WR\u00d3BLESKIEGO 46;","lat":50.670192,"lon":17.927095,"point_type":"hospital","opening_hours":"24\/7","phone":"261625129","prepare_instruction":""},"154":{"name":"SAMODZIELNY PUBLICZNY WOJEW\u00d3DZKI SZPITAL ZESPOLONY ","operator":"","address":"71-455 SZCZECIN, UL. ARKO\u0143SKA 4  ","lat":53.453058,"lon":14.525886,"point_type":"hospital","opening_hours":"24\/7","phone":"918139045,918139009,918139330","prepare_instruction":""},"155":{"name":"SP ZOZ 107 SZPITAL WOJSKOWY W WA\u0141CZU ","operator":"","address":"78-600 WA\u0141CZ, UL. KO\u0141OBRZESKA 44  ","lat":53.2831065,"lon":16.460239,"point_type":"hospital","opening_hours":"24\/7","phone":"261472912","prepare_instruction":""},"156":{"name":"ODDZIA\u0141 OBSERWACYJNO-ZAKA\u0179NY Z PODODDZIA\u0141EM ZAKA\u0179NYM DZIECI\u0118CYM","operator":"","address":"KONIN 62-504, UL. SZPITALNA 45","lat":52.1913128,"lon":18.2331492,"point_type":"hospital","opening_hours":"24\/7","phone":"632404402","prepare_instruction":""},"157":{"name":"GINEKOLOGICZNO-PO\u0141O\u017bNICZY SZPITAL KLINICZNY UNIWERSYTETU","operator":"","address":"POZNA\u0143 60-535, UL. POLNA 33","lat":52.40939215,"lon":16.8955725985,"point_type":"hospital","opening_hours":"24\/7","phone":"618419273","prepare_instruction":""},"158":{"name":"ODDZIA\u0141 NIEP\u0141ODNO\u015aCI I ENDOKRYNOLOGII ROZRODU","operator":"","address":"POZNA\u0143 60-535, UL. POLNA 33","lat":52.40939215,"lon":16.8955725985,"point_type":"hospital","opening_hours":"24\/7","phone":"618419225","prepare_instruction":""},"159":{"name":"SZPITAL MIEJSKI \u015aW. JANA PAW\u0141A II W","operator":"","address":"ELBL\u0104G, 82-300, UL. JANA AMOSA KOME\u0143SKIEGO 35","lat":54.1555301,"lon":19.4263318171,"point_type":"hospital","opening_hours":"24\/7","phone":"552304258","prepare_instruction":""},"160":{"name":"WOJEW\u00d3DZKI SPECJALISTYCZNY SZPITAL","operator":"","address":"OLSZTYN, 10-651, UL. \u017bO\u0141NIERSKA 18 A","lat":53.769173,"lon":20.491182,"point_type":"hospital","opening_hours":"24\/7","phone":"895393421","prepare_instruction":""}}